ONEWEB-0584             
1 54651U 22166K   23352.24725763  .00000120  00000+0  25853-3 0  9997
2 54651  87.9250  65.5136 0001593  92.7950 267.3366 13.21826816 51041
ONEWEB-0585             
1 54652U 22166L   23352.57527558  .00000060  00000+0  11430-3 0  9995
2 54652  87.9254  65.4527 0001637 112.3920 247.7388 13.21826171 51099
ONEWEB-0586             
1 54653U 22166M   23352.58788698  .00000059  00000+0  11054-3 0  9991
2 54653  87.9229  65.4778 0001650  99.3177 260.8143 13.21827217 51090
ONEWEB-0587             
1 54654U 22166N   23352.59736798  .00000207  00000+0  46927-3 0  9999
2 54654  87.9244  65.4329 0001993 111.1694 248.9653 13.21824314 51253
ONEWEB-0589             
1 54655U 22166P   23352.28195921 -.00000057  00000+0 -16926-3 0  9994
2 54655  87.9256  65.5181 0001627  69.4605 290.6703 13.21824204 51073
ONEWEB-0590             
1 54656U 22166Q   23352.60841576  .00000043  00000+0  71693-4 0  9991
2 54656  87.9254  65.4559 0002108 103.3438 256.7931 13.21823749 51100
ONEWEB-0591             
1 54657U 22166R   23352.24252068 -.00000102  00000+0 -27857-3 0  9994
2 54657  87.9256  65.5301 0001720  94.9461 265.1869 13.21825282 51084
ONEWEB-0592             
1 54658U 22166S   23352.24568508  .00000001  00000+0 -28618-4 0  9998
2 54658  87.9244  65.5044 0001907  96.6639 263.4712 13.21824957 50961
